{
  "type": "FeatureCollection",
  "features": [
    {
      "type": "Feature",
      "properties": {
        "norad_id": 43260,
        "name": "GAOFEN-1 03",
        "group": "resource",
        "lat": 51.47370474154518,
        "lon": -134.47912810521677,
        "alt_km": 637.1160163718696,
        "timestamp": "2025-12-03T13:52:09.222900+00:00",
        "meta_object_name": "GAOFEN-1 03",
        "meta_object_id": "2018-031B",
        "meta_epoch": "2025-12-03T08:24:47.196000",
        "meta_mean_motion": 14.7640459,
        "meta_eccentricity": 0.00026393,
        "meta_inclination": 98.0812,
        "meta_ra_of_asc_node": 35.0138,
        "meta_arg_of_pericenter": 358.8613,
        "meta_mean_anomaly": 1.259,
        "meta_ephemeris_type": 0,
        "meta_classification_type": "U",
        "meta_norad_cat_id": 43260,
        "meta_element_set_no": 999,
        "meta_rev_at_epoch": 41379,
        "meta_bstar": 0.00021735318,
        "meta_mean_motion_dot": 1.459e-05,
        "meta_mean_motion_ddot": 0,
        "tle_line1": "1 43260U 18031B   25337.35054625  .00001459  00000+0  21735-3 0  9997",
        "tle_line2": "2 43260  98.0812  35.0138 0002639 358.8613   1.2590 14.76404590413790"
      },
      "geometry": {
        "type": "Point",
        "coordinates": [
          -134.47912810521677,
          51.47370474154518
        ]
      }
    },
    {
      "type": "Feature",
      "properties": {
        "norad_id": 43262,
        "name": "GAOFEN-1 04",
        "group": "resource",
        "lat": -74.45343760936188,
        "lon": -175.30625900025424,
        "alt_km": 648.8806028085473,
        "timestamp": "2025-12-03T13:52:09.222910+00:00",
        "meta_object_name": "GAOFEN-1 04",
        "meta_object_id": "2018-031D",
        "meta_epoch": "2025-12-03T07:49:50.263680",
        "meta_mean_motion": 14.76417628,
        "meta_eccentricity": 0.00013478,
        "meta_inclination": 98.0821,
        "meta_ra_of_asc_node": 35.1575,
        "meta_arg_of_pericenter": 62.4793,
        "meta_mean_anomaly": 297.6553,
        "meta_ephemeris_type": 0,
        "meta_classification_type": "U",
        "meta_norad_cat_id": 43262,
        "meta_element_set_no": 999,
        "meta_rev_at_epoch": 41378,
        "meta_bstar": 0.00021997673,
        "meta_mean_motion_dot": 1.477e-05,
        "meta_mean_motion_ddot": 0,
        "tle_line1": "1 43262U 18031D   25337.32627620  .00001477  00000+0  21998-3 0  9998",
        "tle_line2": "2 43262  98.0821  35.1575 0001347  62.4793 297.6553 14.76417628413785"
      },
      "geometry": {
        "type": "Point",
        "coordinates": [
          -175.30625900025424,
          -74.45343760936188
        ]
      }
    },
    {
      "type": "Feature",
      "properties": {
        "norad_id": 43437,
        "name": "SENTINEL-3B",
        "group": "resource",
        "lat": -76.63456078025692,
        "lon": -176.82612280193163,
        "alt_km": 810.8639062831044,
        "timestamp": "2025-12-03T13:52:09.222920+00:00",
        "meta_object_name": "SENTINEL-3B",
        "meta_object_id": "2018-039A",
        "meta_epoch": "2025-12-03T04:14:23.868096",
        "meta_mean_motion": 14.26736807,
        "meta_eccentricity": 0.00014575,
        "meta_inclination": 98.628,
        "meta_ra_of_asc_node": 42.4985,
        "meta_arg_of_pericenter": 112.0702,
        "meta_mean_anomaly": 248.0633,
        "meta_ephemeris_type": 0,
        "meta_classification_type": "U",
        "meta_norad_cat_id": 43437,
        "meta_element_set_no": 999,
        "meta_rev_at_epoch": 39617,
        "meta_bstar": 0.00011752651,
        "meta_mean_motion_dot": 2.41e-06,
        "meta_mean_motion_ddot": 0,
        "tle_line1": "1 43437U 18039A   25337.17666514  .00000241  00000+0  11753-3 0  9994",
        "tle_line2": "2 43437  98.6280  42.4985 0001457 112.0702 248.0633 14.26736807396174"
      },
      "geometry": {
        "type": "Point",
        "coordinates": [
          -176.82612280193163,
          -76.63456078025692
        ]
      }
    },
    {
      "type": "Feature",
      "properties": {
        "norad_id": 43461,
        "name": "GAOFEN-5 01",
        "group": "resource",
        "lat": -39.73848033984836,
        "lon": 113.30287437425721,
        "alt_km": 699.3573263577018,
        "timestamp": "2025-12-03T13:52:09.222930+00:00",
        "meta_object_name": "GAOFEN-5 01",
        "meta_object_id": "2018-043A",
        "meta_epoch": "2025-12-03T07:55:51.680064",
        "meta_mean_motion": 14.60392331,
        "meta_eccentricity": 0.00015729,
        "meta_inclination": 98.4313,
        "meta_ra_of_asc_node": 300.1343,
        "meta_arg_of_pericenter": 10.5844,
        "meta_mean_anomaly": 349.5388,
        "meta_ephemeris_type": 0,
        "meta_classification_type": "U",
        "meta_norad_cat_id": 43461,
        "meta_element_set_no": 999,
        "meta_rev_at_epoch": 40310,
        "meta_bstar": 0.00016892061,
        "meta_mean_motion_dot": 7.69e-06,
        "meta_mean_motion_ddot": 0,
        "tle_line1": "1 43461U 18043A   25337.33045926  .00000769  00000+0  16892-3 0  9996",
        "tle_line2": "2 43461  98.4313 300.1343 0001572  10.5844 349.5388 14.60392331403109"
      },
      "geometry": {
        "type": "Point",
        "coordinates": [
          113.30287437425721,
          -39.73848033984836
        ]
      }
    },
    {
      "type": "Feature",
      "properties": {
        "norad_id": 43484,
        "name": "GAOFEN-6",
        "group": "resource",
        "lat": 43.451861985799404,
        "lon": 34.68635499701203,
        "alt_km": 630.2408794650237,
        "timestamp": "2025-12-03T13:52:09.222941+00:00",
        "meta_object_name": "GAOFEN-6",
        "meta_object_id": "2018-048A",
        "meta_epoch": "2025-12-03T08:47:30.266592",
        "meta_mean_motion": 14.76536644,
        "meta_eccentricity": 0.0013319,
        "meta_inclination": 97.8044,
        "meta_ra_of_asc_node": 41.9477,
        "meta_arg_of_pericenter": 91.3424,
        "meta_mean_anomaly": 268.9312,
        "meta_ephemeris_type": 0,
        "meta_classification_type": "U",
        "meta_norad_cat_id": 43484,
        "meta_element_set_no": 999,
        "meta_rev_at_epoch": 40449,
        "meta_bstar": 8.7772836e-05,
        "meta_mean_motion_dot": 5.63e-06,
        "meta_mean_motion_ddot": 0,
        "tle_line1": "1 43484U 18048A   25337.36632253  .00000563  00000+0  87773-4 0  9993",
        "tle_line2": "2 43484  97.8044  41.9477 0013319  91.3424 268.9312 14.76536644404497"
      },
      "geometry": {
        "type": "Point",
        "coordinates": [
          34.68635499701203,
          43.451861985799404
        ]
      }
    },
    {
      "type": "Feature",
      "properties": {
        "norad_id": 43585,
        "name": "GAOFEN-11 01",
        "group": "resource",
        "lat": -15.582354679378025,
        "lon": 42.60014387798855,
        "alt_km": 421.74176844254634,
        "timestamp": "2025-12-03T13:52:09.222957+00:00",
        "meta_object_name": "GAOFEN-11 01",
        "meta_object_id": "2018-063A",
        "meta_epoch": "2025-12-03T07:44:04.038144",
        "meta_mean_motion": 15.48810646,
        "meta_eccentricity": 0.00049811,
        "meta_inclination": 97.1582,
        "meta_ra_of_asc_node": 40.3382,
        "meta_arg_of_pericenter": 354.1939,
        "meta_mean_anomaly": 5.9253,
        "meta_ephemeris_type": 0,
        "meta_classification_type": "U",
        "meta_norad_cat_id": 43585,
        "meta_element_set_no": 999,
        "meta_rev_at_epoch": 40996,
        "meta_bstar": 0.00033984936,
        "meta_mean_motion_dot": 0.00018202,
        "meta_mean_motion_ddot": 0,
        "tle_line1": "1 43585U 18063A   25337.32226896  .00018202  00000+0  33985-3 0  9994",
        "tle_line2": "2 43585  97.1582  40.3382 0004981 354.1939   5.9253 15.48810646409960"
      },
      "geometry": {
        "type": "Point",
        "coordinates": [
          42.60014387798855,
          -15.582354679378025
        ]
      }
    },
    {
      "type": "Feature",
      "properties": {
        "norad_id": 43613,
        "name": "ICESAT-2",
        "group": "resource",
        "lat": 47.48484822832036,
        "lon": -123.9265169220891,
        "alt_km": 476.96838491228846,
        "timestamp": "2025-12-03T13:52:09.222968+00:00",
        "meta_object_name": "ICESAT-2",
        "meta_object_id": "2018-070A",
        "meta_epoch": "2025-12-03T07:22:32.825568",
        "meta_mean_motion": 15.28217703,
        "meta_eccentricity": 3.149e-05,
        "meta_inclination": 92.0056,
        "meta_ra_of_asc_node": 238.191,
        "meta_arg_of_pericenter": 114.6625,
        "meta_mean_anomaly": 245.4657,
        "meta_ephemeris_type": 0,
        "meta_classification_type": "U",
        "meta_norad_cat_id": 43613,
        "meta_element_set_no": 999,
        "meta_rev_at_epoch": 40254,
        "meta_bstar": 0.00063779932,
        "meta_mean_motion_dot": 0.00017546,
        "meta_mean_motion_ddot": 0,
        "tle_line1": "1 43613U 18070A   25337.30732437  .00017546  00000+0  63780-3 0  9991",
        "tle_line2": "2 43613  92.0056 238.1910 0000314 114.6625 245.4657 15.28217703402542"
      },
      "geometry": {
        "type": "Point",
        "coordinates": [
          -123.9265169220891,
          47.48484822832036
        ]
      }
    }
  ]
}